{"type": "FeatureCollection", "features": [ {"type": "Feature", "properties": {"norad_id": 17070, "name": "POLAR BEAR", "group": "nnss", "lat": 16.681641402168406, "lon": 3.6106551228257278, "alt_km": 960.9352406922853, "timestamp": "2025-12-13T22:39:29.978486+00:00", "meta": {"OBJECT_NAME": "POLAR BEAR", "OBJECT_ID": "1986-088A", "EPOCH": "2025-12-13T06:59:34.795680", "MEAN_MOTION": 13.75250891, "ECCENTRICITY": 0.00410042, "INCLINATION": 89.6173, "RA_OF_ASC_NODE": 183.7517, "ARG_OF_PERICENTER": 117.6351, "MEAN_ANOMALY": 55.6343, "EPHEMERIS_TYPE": 0, "CLASSIFICATION_TYPE": "U", "NORAD_CAT_ID": 17070, "ELEMENT_SET_NO": 999, "REV_AT_EPOCH": 95986, "BSTAR": 0.00014788839, "MEAN_MOTION_DOT": 1.54e-06, "MEAN_MOTION_DDOT": 0}, "tle": {"line1": "1 17070U 86088A   25347.29137495  .00000154  00000+0  14789-3 0  9997", "line2": "2 17070  89.6173 183.7517 0041004 117.6351  55.6343 13.75250891959860"}}, "geometry": {"type": "Point", "coordinates": [3.6106551228257278, 16.681641402168406]}}, {"type": "Feature", "properties": {"norad_id": 18361, "name": "OSCAR 27", "group": "nnss", "lat": -70.00691876959, "lon": 80.34694896515244, "alt_km": 1071.0420784704902, "timestamp": "2025-12-13T22:39:29.978498+00:00", "meta": {"OBJECT_NAME": "OSCAR 27", "OBJECT_ID": "1987-080A", "EPOCH": "2025-12-13T06:56:14.468640", "MEAN_MOTION": 13.44906896, "ECCENTRICITY": 0.01029546, "INCLINATION": 90.3743, "RA_OF_ASC_NODE": 79.293, "ARG_OF_PERICENTER": 222.2209, "MEAN_ANOMALY": 137.0978, "EPHEMERIS_TYPE": 0, "CLASSIFICATION_TYPE": "U", "NORAD_CAT_ID": 18361, "ELEMENT_SET_NO": 999, "REV_AT_EPOCH": 87564, "BSTAR": 0.00022675514, "MEAN_MOTION_DOT": 1.45e-06, "MEAN_MOTION_DDOT": 0}, "tle": {"line1": "1 18361U 87080A   25347.28905635  .00000145  00000+0  22676-3 0  9996", "line2": "2 18361  90.3743  79.2930 0102954 222.2209 137.0978 13.44906896875642"}}, "geometry": {"type": "Point", "coordinates": [80.34694896515244, -70.00691876959]}}, {"type": "Feature", "properties": {"norad_id": 18362, "name": "OSCAR 29", "group": "nnss", "lat": -59.93316245230643, "lon": 80.42506991906016, "alt_km": 1056.4633455073717, "timestamp": "2025-12-13T22:39:29.978508+00:00", "meta": {"OBJECT_NAME": "OSCAR 29", "OBJECT_ID": "1987-080B", "EPOCH": "2025-12-13T07:10:41.802816", "MEAN_MOTION": 13.44448531, "ECCENTRICITY": 0.01039547, "INCLINATION": 90.3753, "RA_OF_ASC_NODE": 79.7522, "ARG_OF_PERICENTER": 245.5417, "MEAN_ANOMALY": 173.6244, "EPHEMERIS_TYPE": 0, "CLASSIFICATION_TYPE": "U", "NORAD_CAT_ID": 18362, "ELEMENT_SET_NO": 999, "REV_AT_EPOCH": 87517, "BSTAR": 0.00019152638, "MEAN_MOTION_DOT": 1.22e-06, "MEAN_MOTION_DDOT": 0}, "tle": {"line1": "1 18362U 87080B   25347.29909494  .00000122  00000+0  19153-3 0  9996", "line2": "2 18362  90.3753  79.7522 0103954 245.5417 173.6244 13.44448531875173"}}, "geometry": {"type": "Point", "coordinates": [80.42506991906016, -59.93316245230643]}}, {"type": "Feature", "properties": {"norad_id": 19070, "name": "OSCAR 23", "group": "nnss", "lat": 2.0359324640191443, "lon": 16.418713229065315, "alt_km": 1299.915295973905, "timestamp": "2025-12-13T22:39:29.978519+00:00", "meta": {"OBJECT_NAME": "OSCAR 23", "OBJECT_ID": "1988-033A", "EPOCH": "2025-12-13T08:13:55.937856", "MEAN_MOTION": 13.27787225, "ECCENTRICITY": 0.01895805, "INCLINATION": 90.3213, "RA_OF_ASC_NODE": 16.4114, "ARG_OF_PERICENTER": 178.2447, "MEAN_ANOMALY": 192.5668, "EPHEMERIS_TYPE": 0, "CLASSIFICATION_TYPE": "U", "NORAD_CAT_ID": 19070, "ELEMENT_SET_NO": 999, "REV_AT_EPOCH": 82261, "BSTAR": 0.00017608612, "MEAN_MOTION_DOT": 9.6e-07, "MEAN_MOTION_DDOT": 0}, "tle": {"line1": "1 19070U 88033A   25347.34300854  .00000096  00000+0  17609-3 0  9997", "line2": "2 19070  90.3213  16.4114 0189580 178.2447 192.5668 13.27787225822618"}}, "geometry": {"type": "Point", "coordinates": [16.418713229065315, 2.0359324640191443]}}, {"type": "Feature", "properties": {"norad_id": 19071, "name": "OSCAR 32", "group": "nnss", "lat": 68.24079839684273, "lon": -162.6310867453953, "alt_km": 1058.3793637548033, "timestamp": "2025-12-13T22:39:29.978548+00:00", "meta": {"OBJECT_NAME": "OSCAR 32", "OBJECT_ID": "1988-033B", "EPOCH": "2025-12-13T07:41:12.269760", "MEAN_MOTION": 13.27954073, "ECCENTRICITY": 0.01884189, "INCLINATION": 90.3218, "RA_OF_ASC_NODE": 16.5427, "ARG_OF_PERICENTER": 165.1766, "MEAN_ANOMALY": 207.7212, "EPHEMERIS_TYPE": 0, "CLASSIFICATION_TYPE": "U", "NORAD_CAT_ID": 19071, "ELEMENT_SET_NO": 999, "REV_AT_EPOCH": 82273, "BSTAR": 0.00019355788, "MEAN_MOTION_DOT": 1.05e-06, "MEAN_MOTION_DDOT": 0}, "tle": {"line1": "1 19071U 88033B   25347.32028090  .00000105  00000+0  19356-3 0  9997", "line2": "2 19071  90.3218  16.5427 0188418 165.1766 207.7212 13.27954073822734"}}, "geometry": {"type": "Point", "coordinates": [-162.6310867453953, 68.24079839684273]}}, {"type": "Feature", "properties": {"norad_id": 19223, "name": "NOVA 2", "group": "nnss", "lat": -71.48698341381557, "lon": 78.23244255412075, "alt_km": 1178.8584103616631, "timestamp": "2025-12-13T22:39:29.978574+00:00", "meta": {"OBJECT_NAME": "NOVA 2", "OBJECT_ID": "1988-052A", "EPOCH": "2025-12-13T06:58:55.825824", "MEAN_MOTION": 13.22935915, "ECCENTRICITY": 0.00305458, "INCLINATION": 89.9871, "RA_OF_ASC_NODE": 78.2718, "ARG_OF_PERICENTER": 15.4013, "MEAN_ANOMALY": 44.5186, "EPHEMERIS_TYPE": 0, "CLASSIFICATION_TYPE": "U", "NORAD_CAT_ID": 19223, "ELEMENT_SET_NO": 999, "REV_AT_EPOCH": 80955, "BSTAR": 0.00018175727, "MEAN_MOTION_DOT": 8.5e-07, "MEAN_MOTION_DDOT": 0}, "tle": {"line1": "1 19223U 88052A   25347.29092391  .00000085  00000+0  18176-3 0  9994", "line2": "2 19223  89.9871  78.2718 0030545  15.4013  44.5186 13.22935915809550"}}, "geometry": {"type": "Point", "coordinates": [78.23244255412075, -71.48698341381557]}}, {"type": "Feature", "properties": {"norad_id": 19419, "name": "OSCAR 25", "group": "nnss", "lat": 89.82999122945823, "lon": 8.429607269859979, "alt_km": 1154.5918333524705, "timestamp": "2025-12-13T22:39:29.978587+00:00", "meta": {"OBJECT_NAME": "OSCAR 25", "OBJECT_ID": "1988-074A", "EPOCH": "2025-12-13T07:57:09.485856", "MEAN_MOTION": 13.42623393, "ECCENTRICITY": 0.0094466, "INCLINATION": 90.0348, "RA_OF_ASC_NODE": 20.2462, "ARG_OF_PERICENTER": 244.1215, "MEAN_ANOMALY": 126.3325, "EPHEMERIS_TYPE": 0, "CLASSIFICATION_TYPE": "U", "NORAD_CAT_ID": 19419, "ELEMENT_SET_NO": 999, "REV_AT_EPOCH": 82648, "BSTAR": 0.000205936, "MEAN_MOTION_DOT": 1.28e-06, "MEAN_MOTION_DDOT": 0}, "tle": {"line1": "1 19419U 88074A   25347.33135979  .00000128  00000+0  20594-3 0  9995", "line2": "2 19419  90.0348  20.2462 0094466 244.1215 126.3325 13.42623393826480"}}, "geometry": {"type": "Point", "coordinates": [8.429607269859979, 89.82999122945823]}}, {"type": "Feature", "properties": {"norad_id": 19420, "name": "OSCAR 31", "group": "nnss", "lat": -25.11574009534702, "lon": 20.615578478792592, "alt_km": 1114.8757430785827, "timestamp": "2025-12-13T22:39:29.978598+00:00", "meta": {"OBJECT_NAME": "OSCAR 31", "OBJECT_ID": "1988-074B", "EPOCH": "2025-12-13T03:24:45.124416", "MEAN_MOTION": 13.42584645, "ECCENTRICITY": 0.00927729, "INCLINATION": 90.0364, "RA_OF_ASC_NODE": 20.5956, "ARG_OF_PERICENTER": 238.7841, "MEAN_ANOMALY": 181.5784, "EPHEMERIS_TYPE": 0, "CLASSIFICATION_TYPE": "U", "NORAD_CAT_ID": 19420, "ELEMENT_SET_NO": 999, "REV_AT_EPOCH": 82656, "BSTAR": 0.00016795931, "MEAN_MOTION_DOT": 1.06e-06, "MEAN_MOTION_DDOT": 0}, "tle": {"line1": "1 19420U 88074B   25347.14218894  .00000106  00000+0  16796-3 0  9999", "line2": "2 19420  90.0364  20.5956 0092772 238.7841 181.5784 13.42584645826560"}}, "geometry": {"type": "Point", "coordinates": [20.615578478792592, -25.11574009534702]}}]}